NORAD_CAT_ID,OBJECT_NAME,OBJECT_TYPE,EPOCH,MEAN_MOTION,ECCENTRICITY,INCLINATION,RA_OF_ASC_NODE,ARG_OF_PERICENTER,MEAN_ANOMALY,BSTAR,MEAN_MOTION_DOT,MEAN_MOTION_DDOT,TLE_LINE0,TLE_LINE1,TLE_LINE2,SEMIMAJOR_AXIS,PERIOD,APOGEE,PERIGEE,DECAYED
53419.0,STARLINK-4476,PAYLOAD,2022-09-05 20:00:01,15.73241247,0.0001044999999999,53.2191,116.2121,73.2772,56.3782,-0.00067115,-0.00093928,0.0,0 STARLINK-4476,1 53419U 22097AH  22248.83334491 -.00093928  00000-0 -67115-3 0  9991,2 53419  53.2191 116.2121 0001045  73.2772  56.3782 15.73241247  4626,6727.778,91.531,350.346,348.94,0.0
53419.0,STARLINK-4476,PAYLOAD,2022-09-05 22:00:00,15.73227836,0.0001137,53.2191,115.8003,69.5495,172.3467,-0.00069971,-0.00097799,0.0,0 STARLINK-4476,1 53419U 22097AH  22248.91667824 -.00097799  00000-0 -69971-3 0  9991,2 53419  53.2191 115.8003 0001137  69.5495 172.3467 15.73227836  1301,6727.816,91.532,350.446,348.916,0.0
53419.0,STARLINK-4476,PAYLOAD,2022-09-06 06:00:00,15.731229999999998,0.0001131,53.2189,114.1506,71.3273,259.4148,-8.062399999999999e-05,-0.0001188,0.0,0 STARLINK-4476,1 53419U 22097AH  22249.25001157 -.00011880  00000-0 -80624-4 0  9996,2 53419  53.2189 114.1506 0001131  71.3273 259.4148 15.73123000  4682,6728.115,91.538,350.741,349.219,0.0
53419.0,STARLINK-4476,PAYLOAD,2022-09-06 14:00:01,15.73110612,0.0001131,53.2193,112.4999,83.507,336.0661,0.00058718,0.0008227999999999,0.0,0 STARLINK-4476,1 53419U 22097AH  22249.58334491  .00082280  00000-0  58718-3 0  9990,2 53419  53.2193 112.4999 0001131  83.5070 336.0661 15.73110612  1307,6728.15,91.538,350.776,349.254,0.0
53419.0,STARLINK-4476,PAYLOAD,2022-09-06 20:00:01,15.73175171,0.0001163,53.2194,111.2647,74.5125,321.7045,0.00014522,0.00019787,0.0,0 STARLINK-4476,1 53419U 22097AH  22249.83334491  .00019787  00000-0  14522-3 0  9995,2 53419  53.2194 111.2647 0001163  74.5125 321.7045 15.73175171  4773,6727.965999999999,91.535,350.61300000000006,349.0490000000001,0.0
53419.0,STARLINK-4476,PAYLOAD,2022-09-06 22:00:00,15.73166178,0.0001204,53.2193,110.8528,70.7446,77.6955,0.00029474,0.00040886,0.0,0 STARLINK-4476,1 53419U 22097AH  22249.91667824  .00040886  00000-0  29474-3 0  9999,2 53419  53.2193 110.8528 0001204  70.7446  77.6955 15.73166178  1305,6727.9919999999975,91.535,350.667,349.047,0.0
53419.0,STARLINK-4476,PAYLOAD,2022-09-07 14:00:01,15.73172096,0.0001301,53.2192,107.5523,82.0117,244.2628,0.0005876,0.0008256,0.0,0 STARLINK-4476,1 53419U 22097AH  22250.58334491  .00082560  00000-0  58760-3 0  9990,2 53419  53.2192 107.5523 0001301  82.0117 244.2628 15.73172096  1306,6727.975,91.535,350.715,348.964,0.0
53419.0,STARLINK-4476,PAYLOAD,2022-09-07 22:00:00,15.73218192,0.0001320999999999,53.2186,105.9034,71.3948,343.8107,0.00034864,0.00048631,0.0,0 STARLINK-4476,1 53419U 22097AH  22250.91667824  .00048631  00000-0  34864-3 0  9996,2 53419  53.2186 105.9034 0001321  71.3948 343.8107 15.73218192  4953,6727.843000000003,91.532,350.597,348.82,0.0
53419.0,STARLINK-4476,PAYLOAD,2022-09-08 06:00:00,15.73290051,0.0001079,53.2185,104.2547,70.2245,73.9223,-0.00075375,-0.00105489,0.0,0 STARLINK-4476,1 53419U 22097AH  22251.25001157 -.00105489  00000-0 -75375-3 0  9994,2 53419  53.2185 104.2547 0001079  70.2245  73.9223 15.73290051  5002,6727.638000000001,91.528,350.22900000000016,348.778,0.0
53419.0,STARLINK-4476,PAYLOAD,2022-09-08 14:00:01,15.73224215,0.0001022,53.2187,102.604,81.8376,151.2707,-9.7655e-05,-0.00014315,0.0,0 STARLINK-4476,1 53419U 22097AH  22251.58334491 -.00014315  00000-0 -97655-4 0  9993,2 53419  53.2187 102.6040 0001022  81.8376 151.2707 15.73224215  1300,6727.826,91.532,350.379,349.004,0.0
53419.0,STARLINK-4476,PAYLOAD,2022-09-08 22:00:00,15.73240789,0.0001028,53.2187,100.9565,63.13399999999999,258.9557,0.00031543,0.00043957,0.0,0 STARLINK-4476,1 53419U 22097AH  22251.91667824  .00043957  00000-0  31543-3 0  9994,2 53419  53.2187 100.9565 0001028  63.1340 258.9557 15.73240789  1305,6727.779,91.531,350.336,348.952,0.0
53419.0,STARLINK-4476,PAYLOAD,2022-09-09 04:00:00,15.73354085,0.0001016,53.2177,99.7127,65.4624,233.3361,-0.002564,-0.00348242,0.0,0 STARLINK-4476,1 53419U 22097AH  22252.16667824 -.00348242  00000-0 -25640-2 0  9999,2 53419  53.2177  99.7127 0001016  65.4624 233.3361 15.73354085  5141,6727.456,91.524,350.004,348.63699999999994,0.0
53419.0,STARLINK-4476,PAYLOAD,2022-09-09 14:00:01,15.73237319,0.0001291,53.2186,97.6557,79.7934,60.212,-0.00024256,-0.00034576,0.0,0 STARLINK-4476,1 53419U 22097AH  22252.58334491 -.00034576  00000-0 -24256-3 0  9991,2 53419  53.2186  97.6557 0001291  79.7934  60.2120 15.73237319  1306,6727.7890000000025,91.531,350.522,348.785,0.0
53419.0,STARLINK-4476,PAYLOAD,2022-09-09 22:00:00,15.73174375,0.0001268,53.2179,96.0063,63.7584,165.2162,0.00017379,0.00023813,0.0,0 STARLINK-4476,1 53419U 22097AH  22252.91667824  .00023813  00000-0  17379-3 0  9995,2 53419  53.2179  96.0063 0001268  63.7584 165.2162 15.73174375  1305,6727.968000000003,91.535,350.686,348.98,0.0
53419.0,STARLINK-4476,PAYLOAD,2022-09-10 14:00:01,15.73207348,0.0001392,53.218,92.707,78.2504,328.566,-0.00036455,-0.00051486,0.0,0 STARLINK-4476,1 53419U 22097AH  22253.58334491 -.00051486  00000-0 -36455-3 0  9995,2 53419  53.2180  92.7070 0001392  78.2504 328.5660 15.73207348  5363,6727.874,91.533,350.676,348.80300000000005,0.0
53419.0,STARLINK-4476,PAYLOAD,2022-09-10 22:00:00,15.73142296,0.0001567,53.2181,91.0595,68.24600000000001,67.4761,0.00058123,0.00081545,0.0,0 STARLINK-4476,1 53419U 22097AH  22253.91667824  .00081545  00000-0  58123-3 0  9994,2 53419  53.2181  91.0595 0001567  68.2460  67.4761 15.73142296  1303,6728.06,91.537,350.97900000000016,348.87,0.0
53419.0,STARLINK-4476,PAYLOAD,2022-09-11 06:00:00,15.73272388,0.0001319,53.2176,89.4028,68.9172,155.7131,-0.0010956,-0.00152103,0.0,0 STARLINK-4476,1 53419U 22097AH  22254.25001157 -.00152103  00000-0 -10956-2 0  9995,2 53419  53.2176  89.4028 0001319  68.9172 155.7131 15.73272388  5471,6727.689,91.529,350.441,348.666,0.0
53419.0,STARLINK-4476,PAYLOAD,2022-09-11 14:00:01,15.73076246,0.0001514,53.2174,87.7471,74.9897,238.613,0.0011664,0.0016546,0.0,0 STARLINK-4476,1 53419U 22097AH  22254.58334491  .00165460  00000-0  11664-2 0  9996,2 53419  53.2174  87.7471 0001514  74.9897 238.6130 15.73076246  1303,6728.248000000001,91.54,351.13199999999995,349.094,0.0
53419.0,STARLINK-4476,PAYLOAD,2022-09-11 22:00:00,15.731584699999996,0.0001075999999999,53.2176,86.1111,53.4911,349.0372,0.00044881,0.00062726,0.0,0 STARLINK-4476,1 53419U 22097AH  22254.91667824  .00062726  00000-0  44881-3 0  9991,2 53419  53.2176  86.1111 0001076  53.4911 349.0372 15.73158470  5579,6728.014,91.536,350.603,349.155,0.0
53419.0,STARLINK-4476,PAYLOAD,2022-09-12 14:00:01,15.732734099999998,0.0001139,53.2178,82.81,66.2389,154.1845,-0.00069387,-0.00097185,0.0,0 STARLINK-4476,1 53419U 22097AH  22255.58334491 -.00097185  00000-0 -69387-3 0  9993,2 53419  53.2178  82.8100 0001139  66.2389 154.1845 15.73273410  1302,6727.686,91.529,350.31699999999995,348.785,0.0
53419.0,STARLINK-4476,PAYLOAD,2022-09-12 22:00:00,15.73181735,0.0001476,53.218,81.1623,57.1543,252.2458,0.00041083,0.00057387,0.0,0 STARLINK-4476,1 53419U 22097AH  22255.91667824  .00057387  00000-0  41083-3 0  9990,2 53419  53.2180  81.1623 0001476  57.1543 252.2458 15.73181735  5731,6727.946999999999,91.534,350.805,348.819,0.0
53419.0,STARLINK-4476,PAYLOAD,2022-09-13 14:00:01,15.73222901,0.0001324,53.218,77.8616,63.0083,64.2558,-0.0003432,-0.00048555,0.0,0 STARLINK-4476,1 53419U 22097AH  22256.58334491 -.00048555  00000-0 -34320-3 0  9990,2 53419  53.2180  77.8616 0001324  63.0083  64.2558 15.73222901  1304,6727.83,91.532,350.586,348.80400000000014,0.0
53419.0,STARLINK-4476,PAYLOAD,2022-09-13 16:00:00,15.73213208,0.0001308,53.2182,77.4498,57.9666,181.5371,-0.00037255,-0.00052608,0.0,0 STARLINK-4476,1 53419U 22097AH  22256.66667824 -.00052608  00000-0 -37255-3 0  9992,2 53419  53.2182  77.4498 0001308  57.9666 181.5371 15.73213208  5851,6727.858,91.532,350.603,348.843,0.0
53419.0,STARLINK-4476,PAYLOAD,2022-09-13 22:00:00,15.73143683,0.0001381,53.2175,76.2125,47.4188,168.7663,0.00019794,0.00027183,0.0,0 STARLINK-4476,1 53419U 22097AH  22256.91667824  .00027183  00000-0  19794-3 0  9996,2 53419  53.2175  76.2125 0001381  47.4188 168.7663 15.73143683  1307,6728.056,91.536,350.85,348.992,0.0
53419.0,STARLINK-4476,PAYLOAD,2022-09-14 14:00:01,15.73291024,0.000125,53.2173,72.9017,55.1175,338.7864,-0.0055133999999999,-0.00714651,0.0,0 STARLINK-4476,1 53419U 22097AH  22257.58334491 -.00714651  00000-0 -55134-2 0  9993,2 53419  53.2173  72.9017 0001250  55.1175 338.7864 15.73291024  1300,6727.636,91.528,350.342,348.66,0.0
53419.0,STARLINK-4476,PAYLOAD,2022-09-14 20:00:01,15.72990974,0.0001200999999999,53.2174,71.6633,54.6227,315.8815,-0.0084754,-0.0106013,0.0,0 STARLINK-4476,1 53419U 22097AH  22257.83334491 -.01060130  00000-0 -84754-2 0  9998,2 53419  53.2174  71.6633 0001201  54.6227 315.8815 15.72990974  6035,6728.491,91.545,351.164,349.548,0.0
53419.0,STARLINK-4476,PAYLOAD,2022-09-14 22:00:00,15.72714114,0.000148,53.2174,71.2537,46.3159,76.3684,-0.007555,-0.00930507,0.0,0 STARLINK-4476,1 53419U 22097AH  22257.91667824 -.00930507  00000-0 -75550-2 0  9993,2 53419  53.2174  71.2537 0001480  46.3159  76.3684 15.72714114  1303,6729.281,91.561,352.142,350.15,0.0
53419.0,STARLINK-4476,PAYLOAD,2022-09-15 14:00:01,15.7128277,0.0001231999999999,53.2179,67.9593,58.3657,239.3186,-0.0091183,-0.0106013,0.0,0 STARLINK-4476,1 53419U 22097AH  22258.58334491 -.01060130  00000-0 -91183-2 0  9995,2 53419  53.2179  67.9593 0001232  58.3657 239.3186 15.71282770  1308,6733.3669999999975,91.645,356.061,354.402,0.0
53419.0,STARLINK-4476,PAYLOAD,2022-09-15 22:00:00,15.70516442,0.0001296,53.2174,66.3156,44.0032,339.837,-0.0093178,-0.01049909,0.0,0 STARLINK-4476,1 53419U 22097AH  22258.91667824 -.01049909  00000-0 -93178-2 0  9998,2 53419  53.2174  66.3156 0001296  44.0032 339.8370 15.70516442  1306,6735.557,91.69,358.295,356.5490000000001,0.0
